
ATHENA-FIDUS            
1 39509U 14006B   24354.91507571  .00000161  00000+0  00000+0 0  9996
2 39509   0.0270  92.3214 0001248 174.2260 189.6682  1.00273256 39621
TURKSAT 4A              
1 39522U 14007A   24355.10659968  .00000154  00000+0  00000+0 0  9994
2 39522   0.0656 268.8790 0005308   8.3184 252.3838  1.00274823 39752
NAVSTAR 69 (USA 248)    
1 39533U 14008A   24354.73193586  .00000058  00000+0  00000+0 0  9997
2 39533  53.6060 171.5114 0073528 220.5361 138.9224  2.00552795 78761
GPM-CORE                
1 39574U 14009C   24355.12795652  .00022599  00000+0  49368-3 0  9997
2 39574  64.9819 330.4211 0006710 254.7367 105.3031 15.44168741613799
EXPRESS-AT1             
1 39612U 14010A   24354.25173014  .00000084  00000+0  00000+0 0  9998
2 39612   0.0185 328.6975 0000420 270.6133 355.6385  1.00272085 39355
EXPRESS-AT2             
1 39613U 14010B   24354.91146161 -.00000274  00000+0  00000+0 0  9997
2 39613   0.0186   7.5770 0001466 253.6841 295.7015  1.00269009 39043
AMAZONAS 4A             
1 39616U 14011A   24354.79760481 -.00000245  00000+0  00000+0 0  9992
2 39616   0.0542 183.7523 0004648  76.5033  41.7457  1.00273612 39252
ASTRA 5B                
1 39617U 14011B   24354.89077333  .00000144  00000+0  00000+0 0  9998
2 39617   0.0656 312.9261 0004422 311.9597 168.2802  1.00271503 39217
COSMOS 2492 [GLONASS-M] 
1 39620U 14012A   24354.52761338 -.00000061  00000+0  00000+0 0  9997
2 39620  65.5942 332.3856 0014737 313.2220  46.6535  2.13103208 83637
SJ-11-06                
1 39624U 14014A   24355.14763118  .00001073  00000+0  22817-3 0  9997
2 39624  98.0114  30.0468 0012734 255.4467 104.5322 14.60936932571362
SENTINEL-1A             
1 39634U 14016A   24355.11626082  .00000418  00000+0  98407-4 0  9996
2 39634  98.1807 359.5303 0001243  90.0480 270.0862 14.59199279570709
IRNSS-1B                
1 39635U 14017A   24354.55605115  .00000117  00000+0  00000+0 0  9992
2 39635  29.0600 249.6881 0018322 183.1665 271.1538  1.00278480 39334
LUCH-5V                 
1 39727U 14023A   24355.11711223 -.00000261  00000+0  00000+0 0  9993
2 39727   3.7693  74.6645 0004597 210.3949 301.0132  1.00270089557052
KAZSAT-3                
1 39728U 14023B   24354.46667265  .00000067  00000+0  00000+0 0  9990
2 39728   0.0340  69.4860 0000314 329.1544 276.3958  1.00273233 38986
KAZEOSAT 1              
1 39731U 14024A   24355.10260329  .00000498  00000+0  16481-3 0  9999
2 39731  98.3794  68.3443 0000884 100.7979 259.3310 14.42037690560196
NAVSTAR 70 (USA 251)    
1 39741U 14026A   24354.01767670 -.00000094  00000+0  00000+0 0  9991
2 39741  56.6889 352.7030 0035597 314.5346  45.1912  2.00555229 77605
COSMOS 2496             
1 39761U 14028A   24354.94121108  .00000047  00000+0  26824-3 0  9990
2 39761  82.4453  89.6319 0020230 183.3573 176.7374 12.42880694479905
COSMOS 2497             
1 39762U 14028B   24355.07386899  .00000046  00000+0  26028-3 0  9991
2 39762  82.4500  91.0177 0020925 177.3916 182.7276 12.42895908479983
COSMOS 2498             
1 39763U 14028C   24354.93198237  .00000048  00000+0  27593-3 0  9993
2 39763  82.4462  89.8301 0021546 177.9172 182.2001 12.42954314479938
ALOS-2                  
1 39766U 14029A   24354.62710942  .00003540  00000+0  48053-3 0  9990
2 39766  97.9223  88.6157 0001337 119.9555 240.1789 14.79490091571063
UNIFORM 1               
1 39767U 14029B   24355.09643909  .00003861  00000+0  39100-3 0  9990
2 39767  97.8155  84.8180 0004661 330.3284  29.7669 14.91523220573001
SOCRATES                
1 39768U 14029C   24354.90326997  .00004350  00000+0  44439-3 0  9990
2 39768  97.8810  95.6518 0006110 355.6171   4.4993 14.91105125573180
RISING 2                
1 39769U 14029D   24355.10367315  .00007495  00000+0  78942-3 0  9992
2 39769  97.7177  63.9565 0002960 331.7351  28.3706 14.89635911572296
EUTELSAT 3B             
1 39773U 14030A   24354.87271678  .00000027  00000+0  00000+0 0  9998
2 39773   0.0619  10.9988 0004911 222.0849 173.1279  1.00272316 38603
COSMOS 2500 [GLONASS-M] 
1 40001U 14032A   24354.70454241 -.00000060  00000+0  00000+0 0  9995
2 40001  65.5308 332.1703 0007754 223.4301 136.5078  2.13105909 81853
KAZEOSAT 2              
1 40010U 14033A   24355.07675217  .00001275  00000+0  15936-3 0  9991
2 40010  97.5923 211.2017 0008364 322.9632  37.1004 14.83931540568220
HODOYOSHI-4             
1 40011U 14033B   24355.08336179  .00002568  00000+0  30056-3 0  9990
2 40011  97.5604 195.5802 0023581 309.3850  50.5277 14.85696990567951
UNISAT-6                
1 40012U 14033C   24355.03865383  .00004846  00000+0  58974-3 0  9990
2 40012  97.7194 150.5040 0050750  58.5939 302.0224 14.82965750565351
DEIMOS-2                
1 40013U 14033D   24355.11426947  .00002971  00000+0  30801-3 0  9995
2 40013  97.6558 236.1333 0001669  49.3716 310.7647 14.90732573569440
BUGSAT-1 (TITA)         
1 40014U 14033E   24355.12518335  .00005702  00000+0  37109-3 0  9993
2 40014  98.1003  46.4057 0031960 227.0394 132.8152 15.07983170573631
HODOYOSHI-3             
1 40015U 14033F   24355.10882043  .00002714  00000+0  33843-3 0  9993
2 40015  97.5961 171.4855 0034099 347.4997  12.5368 14.82813501566935
SAUDISAT 4              
1 40016U 14033G   24355.01557524  .00001463  00000+0  20548-3 0  9995
2 40016  97.6828 151.9769 0047014  45.7021 314.8032 14.78094765565666
APRIZESAT 9             
1 40018U 14033J   24354.92182720  .00001774  00000+0  27473-3 0  9997
2 40018  97.8275 133.4715 0068508 149.3598 211.1639 14.72854410563534
APRIZESAT 10            
1 40019U 14033K   24354.92694335  .00001747  00000+0  28780-3 0  9990
2 40019  97.8927 125.8336 0079843 211.1713 148.4745 14.69663858562454
BRITE-CA1 (TORONTO)     
1 40020U 14033L   24354.91144614  .00002633  00000+0  41898-3 0  9991
2 40020  97.9014 125.9606 0080666 218.1073 141.4413 14.70711991562264
DUCHIFAT-1              
1 40021U 14033M   24354.94825778  .00022210  00000+0  11039-2 0  9998
2 40021  98.1003 349.7973 0009926 175.9272 184.2042 15.17627694572194
NANOSATC-BR1            
1 40024U 14033Q   24354.48354460  .00017132  00000+0  10244-2 0  9999
2 40024  98.0828 335.4962 0002905 272.8915  87.1980 15.11136882571157
QB50P1                  
1 40025U 14033R   24354.84411671  .00011232  00000+0  78374-3 0  9992
2 40025  98.0674 322.7111 0009181 280.7090  79.3101 15.05525770570751
DTUSAT-2                
1 40030U 14033W   24354.63023479  .00010323  00000+0  75476-3 0  9990
2 40030  98.0364 312.9325 0008198 287.0533  72.9793 15.03798814570519
QB50P2                  
1 40032U 14033Y   24355.12540925  .00009640  00000+0  70411-3 0  9991
2 40032  98.0231 313.3314 0007645 211.1191 148.9581 15.03863123571089
PERSEUS-M2              
1 40037U 14033AD  24355.08026433  .00003251  00000+0  32312-3 0  9994
2 40037  97.9414 286.8647 0011482 307.0444  52.9724 14.92373375570037
PERSEUS-M1              
1 40039U 14033AF  24355.05988891  .00003290  00000+0  32775-3 0  9994
2 40039  97.9184 282.3475 0011284 306.5411  53.4768 14.92265406569892
POLYITAN-1              
1 40042U 14033AJ  24354.70366469  .00015774  00000+0  95134-3 0  9998
2 40042  98.0909 327.8899 0009048 220.4410 139.6146 15.10814785570762
TIGRISAT                
1 40043U 14033AK  24354.99630467  .00003675  00000+0  46612-3 0  9996
2 40043  97.7117 150.2264 0054044  58.1849 302.4610 14.81277207565244
LEMUR-1                 
1 40044U 14033AL  24354.98595844  .00003889  00000+0  49348-3 0  9991
2 40044  97.7159 149.6857 0053201  61.6359 299.0204 14.81254185565183
AEROCUBE 6A             
1 40045U 14033AM  24355.01176716  .00007719  00000+0  82183-3 0  9990
2 40045  97.6765 161.8991 0046686  30.4456 329.9457 14.88386272565624
AEROCUBE 6B             
1 40046U 14033AN  24354.72977590  .00007982  00000+0  82956-3 0  9997
2 40046  97.6736 160.5195 0045232  25.6984 334.6467 14.89393783565410
SPOT 7                  
1 40053U 14034A   24355.10038665  .00001104  00000+0  23944-3 0  9992
2 40053  98.1370  58.6167 0001479  98.0676 262.0692 14.60035239557739
CANX-4                  
1 40055U 14034C   24355.01068119  .00002212  00000+0  30422-3 0  9991
2 40055  98.3768 197.5422 0012560 321.7917  38.2402 14.79355727564049
CANX-5                  
1 40056U 14034D   24354.60873990  .00002220  00000+0  30517-3 0  9991
2 40056  98.3771 197.1363 0012580 323.3402  36.6946 14.79365275554765
OCO 2                   
1 40059U 14035A   24355.15534215  .00001190  00000+0  27421-3 0  9995
2 40059  98.2234 293.2747 0001757  79.7844 280.3552 14.57108666556837
GONETS-M 8              
1 40061U 14036A   24355.16605450  .00000050  00000+0  29222-3 0  9995
2 40061  82.5104 285.4949 0028675 256.7604 103.0276 12.42960406474875
GONETS-M 9              
1 40062U 14036B   24355.11204439  .00000051  00000+0  29774-3 0  9996
2 40062  82.5103 285.5896 0021974 263.8915  95.9661 12.42927246474867
GONETS-M 10             
1 40063U 14036C   24354.85101059  .00000032  00000+0  16009-3 0  9997
2 40063  82.5107 285.7433 0020629 250.0766 109.8091 12.42924432474629
METEOR-M 2              
1 40069U 14037A   24355.12349673  .00000279  00000+0  14762-3 0  9998
2 40069  98.4521 341.2146 0005857 166.8711 193.2620 14.21166975542035
DX1                     
1 40071U 14037C   24355.10009800  .00002939  00000+0  33655-3 0  9991
2 40071  98.3356 276.2331 0006207 236.9443 123.1176 14.86782811565247
SKYSAT-B                
1 40072U 14037D   24354.84661880  .00002379  00000+0  28236-3 0  9991
2 40072  98.3345 274.9265 0004567 237.0792 122.9983 14.85511162565075
UKUBE-1                 
1 40074U 14037F   24355.07181342  .00012455  00000+0  10044-2 0  9992
2 40074  98.3644 297.3538 0003065 109.2209 250.9344 15.00046881566585
